GPS BIIA-23 (PRN 18)    
1 22877U 93068A   18247.70388647  .00000003  00000-0  00000-0 0  9990
2 22877  54.4811  80.2405 0147221  76.7348 138.6510  2.00568366182126
GPS BIIR-2  (PRN 13)    
1 24876U 97035A   18248.29765014  .00000029  00000-0  00000+0 0  9998
2 24876  55.4825 209.6252 0031259  84.1808 276.1548  2.00564227154756
GPS BIIR-3  (PRN 11)    
1 25933U 99055A   18248.37915872 -.00000023  00000-0  00000+0 0  9990
2 25933  51.9443  58.1979 0167956 103.8361 241.8509  2.00565240138572
GPS BIIR-4  (PRN 20)    
1 26360U 00025A   18248.51719539 -.00000018  00000-0  00000+0 0  9996
2 26360  53.2235 136.3160 0040276 121.4397  10.5118  2.00562995134265
GPS BIIR-5  (PRN 28)    
1 26407U 00040A   18248.44127226 -.00000052  00000-0  00000+0 0  9991
2 26407  56.4352 327.7577 0197914 273.1562 141.6962  2.00562375132949
GPS BIIR-6  (PRN 14)    
1 26605U 00071A   18247.78793770  .00000032  00000-0  00000-0 0  9992
2 26605  55.0559 207.2055 0102867 249.1370 321.1083  2.00569238130536
GPS BIIR-8  (PRN 16)    
1 27663U 03005A   18246.62301227 -.00000053  00000-0  00000+0 0  9994
2 27663  56.4996 327.5902 0098591  28.7980 273.3683  2.00562086114275
GPS BIIR-9  (PRN 21)    
1 27704U 03010A   18247.72664000  .00000002  00000-0  00000-0 0  9993
2 27704  54.1527  79.8004 0245384 272.2544  66.7993  2.00567723113092
GPS BIIR-10 (PRN 22)    
1 28129U 03058A   18247.99476595 -.00000021  00000-0  00000+0 0  9997
2 28129  53.0363 139.1774 0073413 274.6710  84.5486  2.00557123107795
GPS BIIR-11 (PRN 19)    
1 28190U 04009A   18248.58099566 -.00000055  00000-0  00000+0 0  9994
2 28190  56.2015  28.3377 0094969  72.4978 349.3195  2.00558048105984
GPS BIIR-12 (PRN 23)    
1 28361U 04023A   18248.36024902  .00000014  00000-0  00000+0 0  9992
2 28361  54.0588 201.8423 0128269 227.2220 311.5941  2.00555559104068
GPS BIIR-13 (PRN 02)    
1 28474U 04045A   18247.86903402  .00000003  00000-0  00000-0 0  9995
2 28474  54.5192  79.4391 0182270 255.0330 287.6542  2.00548038101426
GPS BIIRM-1 (PRN 17)    
1 28874U 05038A   18248.46266240 -.00000058  00000-0  00000+0 0  9991
2 28874  56.3389  25.6623 0127715 258.3848 104.0970  2.00571523 94830
GPS BIIRM-2 (PRN 31)    
1 29486U 06042A   18248.20062317  .00000061  00000-0  00000+0 0  9991
2 29486  55.1387 264.4611 0088912 351.8871 103.2050  2.00556593 87545
GPS BIIRM-3 (PRN 12)    
1 29601U 06052A   18247.51046120 -.00000051  00000-0  00000+0 0  9998
2 29601  56.4757 326.4720 0068330  57.8178 302.8952  2.00551726 86443
GPS BIIRM-4 (PRN 15)    
1 32260U 07047A   18246.84003498  .00000027  00000-0  00000+0 0  9996
2 32260  53.1829 197.8557 0104519  39.3828 321.3555  2.00547306 79814
GPS BIIRM-5 (PRN 29)    
1 32384U 07062A   18248.39488164 -.00000057  00000-0  00000+0 0  9993
2 32384  56.4149  26.2804 0005766  90.1752  90.8870  2.00568184 78574
GPS BIIRM-6 (PRN 07)    
1 32711U 08012A   18248.24078991  .00000061  00000-0  00000+0 0  9994
2 32711  54.8738 263.7186 0122035 217.8606 141.3208  2.00566886 76752
GPS BIIRM-8 (PRN 05)    
1 35752U 09043A   18247.64943655 -.00000019  00000-0  00000-0 0  9993
2 35752  54.3369 141.4883 0054680  36.6250 283.0881  2.00551282 66342
GPS BIIF-1  (PRN 25)    
1 36585U 10022A   18247.43468508 -.00000046  00000-0  00000+0 0  9992
2 36585  55.7637 322.9799 0072679  48.5028 223.0844  2.00572584 60575
GPS BIIF-2  (PRN 01)    
1 37753U 11036A   18248.19914791  .00000010  00000-0  00000+0 0  9990
2 37753  55.7176  83.0479 0079576  38.1389 150.4544  2.00564627 52265
GPS BIIF-3  (PRN 24)    
1 38833U 12053A   18247.92221475  .00000062  00000-0  00000+0 0  9997
2 38833  53.9053 260.2104 0070757  28.9285 331.5039  2.00568142 43332
GPS BIIF-4  (PRN 27)    
1 39166U 13023A   18247.78294260 -.00000059  00000-0  00000-0 0  9999
2 39166  56.0327  22.5593 0059275  24.1532 336.1324  2.00561675 38871
GPS BIIF-5  (PRN 30)    
1 39533U 14008A   18248.28150025  .00000056  00000-0  00000+0 0  9992
2 39533  54.0465 265.5565 0036709 192.6684 167.2877  2.00560868 33238
GPS BIIF-6  (PRN 06)    
1 39741U 14026A   18248.06025131  .00000009  00000-0  00000+0 0  9996
2 39741  55.7001  82.5768 0011807 291.9592  67.9881  2.00561315 31516
GPS BIIF-7  (PRN 09)    
1 40105U 14045A   18248.14760820  .00000018  00000-0  00000+0 0  9993
2 40105  54.5850 201.9987 0007614 104.0250 256.0384  2.00577397 29969
GPS BIIF-8  (PRN 03)    
1 40294U 14068A   18248.02599096 -.00000019  00000-0  00000+0 0  9991
2 40294  55.0884 142.8022 0015835  27.7003 332.4371  2.00561880 28183
GPS BIIF-9  (PRN 26)    
1 40534U 15013A   18248.16037315 -.00000044  00000-0  00000+0 0  9993
2 40534  54.7014 321.5894 0028672 359.3786   0.6760  2.00558809 25257
GPS BIIF-10  (PRN 08)   
1 40730U 15033A   18248.32029905 -.00000063  00000-0  00000+0 0  9998
2 40730  55.5619  22.0075 0035981 333.4317  26.3922  2.00570008 23015
GPS BIIF-11  (PRN 10)   
1 41019U 15062A   18247.37525711 -.00000018  00000-0  00000-0 0  9992
2 41019  55.0924 142.6336 0038297 203.1978 156.6824  2.00564376 20812
GPS BIIF-12  (PRN 32)   
1 41328U 16007A   18248.46076925  .00000014  00000-0  00000+0 0  9998
2 41328  54.8341 202.2985 0024448 219.1119 140.6886  2.00559997 18894
